start=new Date('2022-06-01T00:00:00.000Z').valueOf();
sats=[{"OBJECT_NAME":"STARLINK-3672","OBJECT_TYPE":"PAYLOAD","OBJECT_ID":"2022-025U","EPHEMERIS_TYPE":"0","REV_AT_EPOCH":"1428","MEAN_ANOMALY":"47.7640","DECAY_DATE":null,"MEAN_ELEMENT_THEORY":"SGP4","MEAN_MOTION":"15.15075484","MEAN_MOTION_DOT":"-0.00723218","COUNTRY_CODE":"US","TIME_SYSTEM":"UTC","GP_ID":"205042107","CLASSIFICATION_TYPE":"U","LAUNCH_DATE":"2022-03-09","TLE_LINE1":"1 51974U 22025U   22151.91667824 -.00723218  00000-0 -41017-1 0  9990","BSTAR":"-0.04101700000000","ECCENTRICITY":"0.00018600","PERIAPSIS":"519.468","FILE":"3474586","PERIOD":"95.045","RCS_SIZE":"LARGE","EPOCH":"2022-05-31T22:00:00.999936","NORAD_CAT_ID":"51974","SITE":"AFETR","ELEMENT_SET_NO":"999","CENTER_NAME":"EARTH","REF_FRAME":"TEME","INCLINATION":"53.2174","ARG_OF_PERICENTER":"36.9055","TLE_LINE2":"2 51974  53.2174  94.2963 0001860  36.9055  47.7640 15.15075484 14289","RA_OF_ASC_NODE":"94.2963","APOAPSIS":"522.035","MEAN_MOTION_DDOT":"0.0000000000000","SEMIMAJOR_AXIS":"6898.886"},{"REV_AT_EPOCH":"1431","MEAN_ANOMALY":"242.0982","MEAN_MOTION":"15.21772940","MEAN_ELEMENT_THEORY":"SGP4","DECAY_DATE":null,"OBJECT_NAME":"STARLINK-3674","OBJECT_TYPE":"PAYLOAD","EPHEMERIS_TYPE":"0","OBJECT_ID":"2022-025V","CLASSIFICATION_TYPE":"U","GP_ID":"205042406","TLE_LINE1":"1 51975U 22025V   22151.91667824 -.00723727  00000-0 -33799-1 0  9994","LAUNCH_DATE":"2022-03-09","COUNTRY_CODE":"US","TIME_SYSTEM":"UTC","MEAN_MOTION_DOT":"-0.00723727","RCS_SIZE":"LARGE","EPOCH":"2022-05-31T22:00:00.999936","PERIOD":"94.626","SITE":"AFETR","NORAD_CAT_ID":"51975","ECCENTRICITY":"0.00016740","BSTAR":"-0.03379900000000","FILE":"3474589","PERIAPSIS":"499.343","APOAPSIS":"501.646","RA_OF_ASC_NODE":"94.4932","ARG_OF_PERICENTER":"46.2172","TLE_LINE2":"2 51975  53.2176  94.4932 0001674  46.2172 242.0982 15.21772940 14318","SEMIMAJOR_AXIS":"6878.630","MEAN_MOTION_DDOT":"0.0000000000000","CENTER_NAME":"EARTH","ELEMENT_SET_NO":"999","INCLINATION":"53.2176","REF_FRAME":"TEME"},{"BSTAR":"0.00008236000000","ECCENTRICITY":"0.00020010","PERIAPSIS":"538.386","FILE":"3474589","EPOCH":"2022-05-31T21:24:06.788736","RCS_SIZE":"LARGE","PERIOD":"95.438","NORAD_CAT_ID":"51976","SITE":"AFETR","ELEMENT_SET_NO":"999","CENTER_NAME":"EARTH","REF_FRAME":"TEME","INCLINATION":"53.2228","TLE_LINE2":"2 51976  53.2228 104.2656 0002001  47.7459 312.3703 15.08831964 14161","ARG_OF_PERICENTER":"47.7459","APOAPSIS":"541.154","RA_OF_ASC_NODE":"104.2656","MEAN_MOTION_DDOT":"0.0000000000000","SEMIMAJOR_AXIS":"6917.905","OBJECT_TYPE":"PAYLOAD","OBJECT_NAME":"STARLINK-3663","OBJECT_ID":"2022-025W","EPHEMERIS_TYPE":"0","REV_AT_EPOCH":"1416","MEAN_ANOMALY":"312.3703","MEAN_ELEMENT_THEORY":"SGP4","DECAY_DATE":null,"MEAN_MOTION":"15.08831964","MEAN_MOTION_DOT":"0.00001023","TIME_SYSTEM":"UTC","COUNTRY_CODE":"US","GP_ID":"205042152","CLASSIFICATION_TYPE":"U","LAUNCH_DATE":"2022-03-09","TLE_LINE1":"1 51976U 22025W   22151.89174524  .00001023  00000-0  82360-4 0  9999"},{"REF_FRAME":"TEME","INCLINATION":"53.2174","ELEMENT_SET_NO":"999","CENTER_NAME":"EARTH","MEAN_MOTION_DDOT":"0.0000000000000","SEMIMAJOR_AXIS":"6800.418","TLE_LINE2":"2 51977  53.2174  87.9169 0001209  92.8413  36.8057 15.48101297 14374","ARG_OF_PERICENTER":"92.8413","APOAPSIS":"423.105","RA_OF_ASC_NODE":"87.9169","PERIAPSIS":"421.461","FILE":"3474589","BSTAR":"-0.01460900000000","ECCENTRICITY":"0.00012090","NORAD_CAT_ID":"51977","SITE":"AFETR","EPOCH":"2022-05-31T22:00:00.999936","RCS_SIZE":"LARGE","PERIOD":"93.017","MEAN_MOTION_DOT":"-0.00720912","TIME_SYSTEM":"UTC","COUNTRY_CODE":"US","TLE_LINE1":"1 51977U 22025X   22151.91667824 -.00720912  00000-0 -14609-1 0  9998","LAUNCH_DATE":"2022-03-09","GP_ID":"205042148","CLASSIFICATION_TYPE":"U","OBJECT_ID":"2022-025X","EPHEMERIS_TYPE":"0","OBJECT_TYPE":"PAYLOAD","OBJECT_NAME":"STARLINK-3660","MEAN_ELEMENT_THEORY":"SGP4","DECAY_DATE":null,"MEAN_MOTION":"15.48101297","REV_AT_EPOCH":"1437","MEAN_ANOMALY":"36.8057"},{"CLASSIFICATION_TYPE":"U","GP_ID":"204991841","TLE_LINE1":"1 51978U 22025Y   22151.25002315  .00029289  00000-0  18517-2 0  9994","LAUNCH_DATE":"2022-03-09","COUNTRY_CODE":"US","TIME_SYSTEM":"UTC","MEAN_MOTION_DOT":"0.00029289","REV_AT_EPOCH":"1405","MEAN_ANOMALY":"121.8888","MEAN_MOTION":"15.08820423","DECAY_DATE":null,"MEAN_ELEMENT_THEORY":"SGP4","OBJECT_TYPE":"PAYLOAD","OBJECT_NAME":"STARLINK-3666","EPHEMERIS_TYPE":"0","OBJECT_ID":"2022-025Y","RA_OF_ASC_NODE":"107.1814","APOAPSIS":"541.060","TLE_LINE2":"2 51978  53.2127 107.1814 0001814  50.5715 121.8888 15.08820423 14050","ARG_OF_PERICENTER":"50.5715","SEMIMAJOR_AXIS":"6917.940","MEAN_MOTION_DDOT":"0.0000000000000","CENTER_NAME":"EARTH","ELEMENT_SET_NO":"999","INCLINATION":"53.2127","REF_FRAME":"TEME","RCS_SIZE":"LARGE","EPOCH":"2022-05-31T06:00:02.000160","PERIOD":"95.439","SITE":"AFETR","NORAD_CAT_ID":"51978","ECCENTRICITY":"0.00018140","BSTAR":"0.00185170000000","FILE":"3473458","PERIAPSIS":"538.550"},{"FILE":"3474589","PERIAPSIS":"538.438","ECCENTRICITY":"0.00019070","BSTAR":"-0.00033140000000","SITE":"AFETR","NORAD_CAT_ID":"51979","RCS_SIZE":"LARGE","PERIOD":"95.438","EPOCH":"2022-05-31T22:00:00.999936","INCLINATION":"53.2205","REF_FRAME":"TEME","CENTER_NAME":"EARTH","ELEMENT_SET_NO":"999","SEMIMAJOR_AXIS":"6917.893","MEAN_MOTION_DDOT":"0.0000000000000","RA_OF_ASC_NODE":"104.1671","APOAPSIS":"541.077","TLE_LINE2":"2 51979  53.2205 104.1671 0001907  42.7789  72.8693 15.08835974 14183","ARG_OF_PERICENTER":"42.7789","EPHEMERIS_TYPE":"0","OBJECT_ID":"2022-025Z","OBJECT_NAME":"STARLINK-3656","OBJECT_TYPE":"PAYLOAD","MEAN_MOTION":"15.08835974","DECAY_DATE":null,"MEAN_ELEMENT_THEORY":"SGP4","REV_AT_EPOCH":"1418","MEAN_ANOMALY":"72.8693","COUNTRY_CODE":"US","TIME_SYSTEM":"UTC","MEAN_MOTION_DOT":"-0.00005558","LAUNCH_DATE":"2022-03-09","TLE_LINE1":"1 51979U 22025Z   22151.91667824 -.00005558  00000-0 -33140-3 0  9995","CLASSIFICATION_TYPE":"U","GP_ID":"205042403"},{"OBJECT_ID":"2022-025AA","EPHEMERIS_TYPE":"0","OBJECT_NAME":"STARLINK-3649","OBJECT_TYPE":"PAYLOAD","DECAY_DATE":null,"MEAN_ELEMENT_THEORY":"SGP4","MEAN_MOTION":"15.08831043","REV_AT_EPOCH":"1414","MEAN_ANOMALY":"74.4173","MEAN_MOTION_DOT":"0.00033007","COUNTRY_CODE":"US","TIME_SYSTEM":"UTC","TLE_LINE1":"1 51980U 22025AA  22151.83334491  .00033007  00000-0  20828-2 0  9995","LAUNCH_DATE":"2022-03-09","GP_ID":"205032995","CLASSIFICATION_TYPE":"U","PERIAPSIS":"538.602","FILE":"3474193","BSTAR":"0.00208280000000","ECCENTRICITY":"0.00016930","NORAD_CAT_ID":"51980","SITE":"AFETR","RCS_SIZE":"LARGE","EPOCH":"2022-05-31T20:00:01.000224","PERIOD":"95.438","REF_FRAME":"TEME","INCLINATION":"53.2139","ELEMENT_SET_NO":"999","CENTER_NAME":"EARTH","MEAN_MOTION_DDOT":"0.0000000000000","SEMIMAJOR_AXIS":"6917.908","TLE_LINE2":"2 51980  53.2139 104.5570 0001693  68.2423  74.4173 15.08831043 14143","ARG_OF_PERICENTER":"68.2423","RA_OF_ASC_NODE":"104.5570","APOAPSIS":"540.944"},{"ELEMENT_SET_NO":"999","CENTER_NAME":"EARTH","REF_FRAME":"TEME","INCLINATION":"53.2126","TLE_LINE2":"2 51981  53.2126 104.6015 0001930  56.9027   5.7425 15.08824060 14141","ARG_OF_PERICENTER":"56.9027","APOAPSIS":"541.129","RA_OF_ASC_NODE":"104.6015","SEMIMAJOR_AXIS":"6917.929","MEAN_MOTION_DDOT":"0.0000000000000","BSTAR":"0.00232660000000","ECCENTRICITY":"0.00019300","PERIAPSIS":"538.459","FILE":"3474214","EPOCH":"2022-05-31T20:00:01.000224","RCS_SIZE":"LARGE","PERIOD":"95.439","NORAD_CAT_ID":"51981","SITE":"AFETR","MEAN_MOTION_DOT":"0.00036918","TIME_SYSTEM":"UTC","COUNTRY_CODE":"US","GP_ID":"205033352","CLASSIFICATION_TYPE":"U","TLE_LINE1":"1 51981U 22025AB  22151.83334491  .00036918  00000-0  23266-2 0  9999","LAUNCH_DATE":"2022-03-09","OBJECT_TYPE":"PAYLOAD","OBJECT_NAME":"STARLINK-3635","OBJECT_ID":"2022-025AB","EPHEMERIS_TYPE":"0","MEAN_ANOMALY":"5.7425","REV_AT_EPOCH":"1414","MEAN_ELEMENT_THEORY":"SGP4","DECAY_DATE":null,"MEAN_MOTION":"15.08824060"},{"OBJECT_TYPE":"PAYLOAD","OBJECT_NAME":"STARLINK-3650","OBJECT_ID":"2022-025AC","EPHEMERIS_TYPE":"0","REV_AT_EPOCH":"130","MEAN_ANOMALY":"181.2639","MEAN_ELEMENT_THEORY":"SGP4","DECAY_DATE":null,"MEAN_MOTION":"15.08828456","MEAN_MOTION_DOT":"0.00022740","TIME_SYSTEM":"UTC","COUNTRY_CODE":"US","GP_ID":"205032258","CLASSIFICATION_TYPE":"U","TLE_LINE1":"1 51982U 22025AC  22151.25002315  .00022740  00000-0  14427-2 0  9990","LAUNCH_DATE":"2022-03-09","BSTAR":"0.00144270000000","ECCENTRICITY":"0.00019530","PERIAPSIS":"538.430","FILE":"3474118","RCS_SIZE":"LARGE","EPOCH":"2022-05-31T06:00:02.000160","PERIOD":"95.438","NORAD_CAT_ID":"51982","SITE":"AFETR","ELEMENT_SET_NO":"999","CENTER_NAME":"EARTH","REF_FRAME":"TEME","INCLINATION":"53.2130","TLE_LINE2":"2 51982  53.2130 107.1769 0001953  51.2353 181.2639 15.08828456  1300","ARG_OF_PERICENTER":"51.2353","APOAPSIS":"541.132","RA_OF_ASC_NODE":"107.1769","SEMIMAJOR_AXIS":"6917.916","MEAN_MOTION_DDOT":"0.0000000000000"},{"FILE":"3474118","PERIAPSIS":"538.439","ECCENTRICITY":"0.00019950","BSTAR":"0.00177630000000","SITE":"AFETR","NORAD_CAT_ID":"51983","RCS_SIZE":"LARGE","EPOCH":"2022-05-31T06:00:02.000160","PERIOD":"95.439","INCLINATION":"53.2116","REF_FRAME":"TEME","CENTER_NAME":"EARTH","ELEMENT_SET_NO":"999","MEAN_MOTION_DDOT":"0.0000000000000","SEMIMAJOR_AXIS":"6917.954","APOAPSIS":"541.199","RA_OF_ASC_NODE":"107.2137","TLE_LINE2":"2 51983  53.2116 107.2137 0001995  52.1084 100.3425 15.08815821  1309","ARG_OF_PERICENTER":"52.1084","EPHEMERIS_TYPE":"0","OBJECT_ID":"2022-025AD","OBJECT_NAME":"STARLINK-3655","OBJECT_TYPE":"PAYLOAD","MEAN_MOTION":"15.08815821","MEAN_ELEMENT_THEORY":"SGP4","DECAY_DATE":null,"REV_AT_EPOCH":"130","MEAN_ANOMALY":"100.3425","COUNTRY_CODE":"US","TIME_SYSTEM":"UTC","MEAN_MOTION_DOT":"0.00028077","TLE_LINE1":"1 51983U 22025AD  22151.25002315  .00028077  00000-0  17763-2 0  9996","LAUNCH_DATE":"2022-03-09","CLASSIFICATION_TYPE":"U","GP_ID":"205032294"}];
